SAC-D
1 37673U 11024A   13336.47746551 +.00000000 +00000+0 +13543-4 6  9343
2 37673  98.0116 341.5101 0001765  87.2684 135.5750 14.72281645132824
